Orbit 1
Satellite Number: 99999
Line 1: 1 99999U 20042A   26027.13434208  .00000000  00000-0  10000-4 0  9990
Line 2: 2 99999  97.6020 244.5384 0002214  88.6496 271.9396 15.06633386  1000
Keplerian Elements:
  Semi-major axis (a): 6921.623315 km
  Eccentricity (e): 0.000221
  Inclination (i): 97.602000 deg
  Argument of Perigee (ω): 88.649600 deg
  RAAN (Ω): 244.538400 deg
--------------------------------------------------
Orbit 2
Satellite Number: 64860
Line 1: 1 64860U 25152U   26027.15058631  .00004531  00000-0  31797-3 0  9998
Line 2: 2 64860  97.6014 244.5281 0002306  70.7975 289.3501 15.05653619 29162
Keplerian Elements:
  Semi-major axis (a): 6924.628292 km
  Eccentricity (e): 0.000231
  Inclination (i): 97.601400 deg
  Argument of Perigee (ω): 70.797500 deg
  RAAN (Ω): 244.528100 deg
--------------------------------------------------
Orbit 3
Satellite Number: 64864
Line 1: 1 64864U 25152Y   26027.11459306  .00007580  00000-0  52885-3 0  9990
Line 2: 2 64864  97.6023 244.5649 0002083  90.7328 269.4138 15.05657948 29164
Keplerian Elements:
  Semi-major axis (a): 6924.615047 km
  Eccentricity (e): 0.000208
  Inclination (i): 97.602300 deg
  Argument of Perigee (ω): 90.732800 deg
  RAAN (Ω): 244.564900 deg
--------------------------------------------------
Orbit 4
Satellite Number: 64850
Line 1: 1 64850U 25152J   26027.13397895  .00009241  00000-0  64374-3 0  9993
Line 2: 2 64850  97.6033 244.5352 0002162  88.2078 271.9396 15.05654153 29162
Keplerian Elements:
  Semi-major axis (a): 6924.626736 km
  Eccentricity (e): 0.000216
  Inclination (i): 97.603300 deg
  Argument of Perigee (ω): 88.207800 deg
  RAAN (Ω): 244.535200 deg
--------------------------------------------------
